COSMOS 2532 (RODNIK-S *)
1 43753U 18097C   26201.59140951 -.00000114  00000+0 -89326-3 0  9990
2 43753  82.5117 201.3896 0017754 349.0655  11.0037 12.42910281346424
MINXSS-2                
1 43758U 18099A   26201.44605656  .00024464  00000+0  45134-3 0  9990
2 43758  97.4516 278.7575 0008923 144.5032 215.6814 15.49069517419270
SIRION PATHFINDER-2     
1 43759U 18099B   26201.08076455  .00002733  00000+0  15058-3 0  9997
2 43759  97.4233 249.3587 0008997 174.6217 185.5114 15.14800599417602
AISTECHSAT 2            
1 43768U 18099L   26201.10004357  .00002637  00000+0  14173-3 0  9992
2 43768  97.4273 248.4166 0005139 164.6633 195.4757 15.15741130417266
FOX-1CLIFF (AO-95)      
1 43770U 18099N   26201.10375177  .00006244  00000+0  23587-3 0  9993
2 43770  97.4362 261.2401 0007658 220.0884 139.9791 15.27333167418246
RANGE-A                 
1 43773U 18099R   26201.36676677  .00002019  00000+0  11586-3 0  9995
2 43773  97.3949 242.9773 0009021 224.3844 135.6665 15.13631771417515
SNUSAT-2                
1 43782U 18099AA  26201.13840764  .00004304  00000+0  18974-3 0  9997
2 43782  97.4037 254.0225 0010747 171.0572 189.0857 15.22283253418046
SNUGLITE                
1 43784U 18099AC  26201.09395053  .00006593  00000+0  24535-3 0  9992
2 43784  97.3846 255.0614 0004033 147.3868 212.7621 15.27820786418342
ITASAT                  
1 43786U 18099AE  26201.41463476  .00003642  00000+0  17496-3 0  9995
2 43786  97.4007 252.2679 0011187 230.0239 130.0014 15.19417487417959
EAGLET-I                
1 43790U 18099AJ  26201.11949023  .00001636  00000+0  95801-4 0  9992
2 43790  97.4212 249.9171 0009921 224.9635 135.0794 15.13154065417311
ESEO                    
1 43792U 18099AL  26201.37295646  .00001056  00000+0  79824-4 0  9990
2 43792  97.3964 237.3388 0011143 213.1460 146.9069 15.04335672416794
THEA                    
1 43796U 18099AQ  26201.43607974  .00010796  00000+0  30945-3 0  9993
2 43796  97.4418 271.4744 0008463 157.5938 202.5677 15.36047438417790
ASTROCAST 0.1           
1 43798U 18099AS  26201.55874143  .00025224  00000+0  42439-3 0  9995
2 43798  97.4363 281.1503 0005337 114.8828 245.2980 15.51707295419607
JY1SAT (JO-97)          
1 43803U 18099AX  26201.42516921  .00009993  00000+0  29999-3 0  9996
2 43803  97.4106 264.3949 0007220 142.6270 217.5477 15.34621440418722
SUOMI-100               
1 43804U 18099AY  26201.12941423  .00006983  00000+0  24946-3 0  9996
2 43804  97.4164 261.4129 0011002 156.2124 203.9627 15.29100285418456
CENTAURI-1              
1 43809U 18099BD  26201.39517788  .00002657  00000+0  13893-3 0  9996
2 43809  97.4199 252.4045 0013448 205.8760 154.1803 15.16653293417538
GLOBAL-2                
1 43812U 18099BG  26201.36816428  .00001854  00000+0  12157-3 0  9990
2 43812  97.3547 236.5022 0007065  53.0029 307.1846 15.08844393416917
SEAHAWK-1               
1 43820U 18099BQ  26201.51140160  .00004996  00000+0  21346-3 0  9999
2 43820  97.3936 253.4966 0008429 179.5356 180.5891 15.23289082417600
SAUDISAT 5A             
1 43831U 18102A   26201.62411441  .00003099  00000+0  11478-3 0  9999
2 43831  97.3045 262.5639 0009906  26.2034 333.9705 15.28353010420782
SAUDISAT 5B             
1 43833U 18102C   26201.63752314  .00002968  00000+0  10921-3 0  9995
2 43833  97.3155 265.7074 0010676  27.5066 332.6737 15.28594459420908
ISAT                    
1 43879U 18111D   26201.52719271  .00092238  00000+0  70781-3 0  9997
2 43879  97.5845 139.4791 0008462 129.8179 230.3830 15.71750126416399
UWE-4                   
1 43880U 18111E   26201.32998797  .00020781  00000+0  39834-3 0  9997
2 43880  97.5827 131.2970 0006953 175.5229 184.6085 15.48022350415901
D-STAR ONE (SPARROW)    
1 43881U 18111F   26201.30955935  .00224149  00000+0  84752-3 0  9996
2 43881  97.6060 145.6065 0009118 135.7149 224.4852 15.87077852416604
JILIN-1 09              
1 43943U 19005B   26201.60805403  .00002657  00000+0  12383-3 0  9994
2 43943  97.4741 296.2920 0001822  23.6131 336.5188 15.20767272414222
JILIN-1 10              
1 43946U 19005E   26201.57106508  .00003477  00000+0  13783-3 0  9999
2 43946  97.4793 300.3848 0009064 152.4819 207.6901 15.26041755414406
EGYPTSAT-A (MISRSAT-A)  
1 44047U 19008A   26201.57992333  .00000382  00000+0  68276-4 0  9994
2 44047  98.0173 265.8919 0001782  92.2861 267.8551 14.72340097398152
EMISAT                  
1 44078U 19018A   26201.55126641  .00000287  00000+0  97191-4 0  9990
2 44078  98.4625 260.1648 0019576 116.0769 244.2439 14.43651495384874
JILIN-1 GAOFEN 3A       
1 44312U 19032C   26201.31866052  .00007367  00000+0  23413-3 0  9999
2 44312  44.9738 174.4975 0005078 143.1290 216.9945 15.33259829392926
WT 1B                   
1 44316U 19032G   26201.48670862  .00004613  00000+0  17745-3 0  9995
2 44316  44.9724 239.0888 0008122  69.2578 290.9175 15.27779339392176
