OBJECT_NAME,OBJECT_ID,EPOCH,MEAN_MOTION,ECCENTRICITY,INCLINATION,RA_OF_ASC_NODE,ARG_OF_PERICENTER,MEAN_ANOMALY,EPHEMERIS_TYPE,CLASSIFICATION_TYPE,NORAD_CAT_ID,ELEMENT_SET_NO,REV_AT_EPOCH,BSTAR,MEAN_MOTION_DOT,MEAN_MOTION_DDOT
COSMOS 2532 (RODNIK-S 18),2018-097C,2026-07-20T14:11:37.781664,12.42910281,.00177547,82.5117,201.3896,349.0655,11.0037,0,U,43753,999,34642,-.89326138E-3,-.114E-5,0
MINXSS-2,2018-099A,2026-07-20T10:42:19.286784,15.49069517,.00089231,97.4516,278.7575,144.5032,215.6814,0,U,43758,999,41927,.45134144E-3,.24464E-3,0
SIRION PATHFINDER-2,2018-099B,2026-07-20T01:56:18.057120,15.14800599,.00089975,97.4233,249.3587,174.6217,185.5114,0,U,43759,999,41760,.15057646E-3,.2733E-4,0
AISTECHSAT 2,2018-099L,2026-07-20T02:24:03.764448,15.15741130,.00051397,97.4273,248.4166,164.6633,195.4757,0,U,43768,999,41726,.14172826E-3,.2637E-4,0
FOX-1CLIFF (AO-95),2018-099N,2026-07-20T02:29:24.152928,15.27333167,.00076585,97.4362,261.2401,220.0884,139.9791,0,U,43770,999,41824,.23587359E-3,.6244E-4,0
RANGE-A,2018-099R,2026-07-20T08:48:08.648928,15.13631771,.00090218,97.3949,242.9773,224.3844,135.6665,0,U,43773,999,41751,.1158611E-3,.2019E-4,0
SNUSAT-2,2018-099AA,2026-07-20T03:19:18.420096,15.22283253,.00107475,97.4037,254.0225,171.0572,189.0857,0,U,43782,999,41804,.18973754E-3,.4304E-4,0
SNUGLITE,2018-099AC,2026-07-20T02:15:17.325792,15.27820786,.0004033,97.3846,255.0614,147.3868,212.7621,0,U,43784,999,41834,.24534791E-3,.6593E-4,0
ITASAT,2018-099AE,2026-07-20T09:57:04.443264,15.19417487,.00111874,97.4007,252.2679,230.0239,130.0014,0,U,43786,999,41795,.17496143E-3,.3642E-4,0
EAGLET-I,2018-099AJ,2026-07-20T02:52:03.955872,15.13154065,.00099211,97.4212,249.9171,224.9635,135.0794,0,U,43790,999,41731,.95800816E-4,.1636E-4,0
ESEO,2018-099AL,2026-07-20T08:57:03.438144,15.04335672,.00111436,97.3964,237.3388,213.1460,146.9069,0,U,43792,999,41679,.79823671E-4,.1056E-4,0
THEA,2018-099AQ,2026-07-20T10:27:57.289536,15.36047438,.00084637,97.4418,271.4744,157.5938,202.5677,0,U,43796,999,41779,.30944677E-3,.10796E-3,0
ASTROCAST 0.1,2018-099AS,2026-07-20T13:24:35.259552,15.51707295,.00053376,97.4363,281.1503,114.8828,245.2980,0,U,43798,999,41960,.42439015E-3,.25224E-3,0
JY1SAT (JO-97),2018-099AX,2026-07-20T10:12:14.619744,15.34621440,.00072206,97.4106,264.3949,142.6270,217.5477,0,U,43803,999,41872,.29998765E-3,.9993E-4,0
SUOMI-100,2018-099AY,2026-07-20T03:06:21.389472,15.29100285,.00110026,97.4164,261.4129,156.2124,203.9627,0,U,43804,999,41845,.2494567E-3,.6983E-4,0
CENTAURI-1,2018-099BD,2026-07-20T09:29:03.368832,15.16653293,.00134488,97.4199,252.4045,205.8760,154.1803,0,U,43809,999,41753,.13892551E-3,.2657E-4,0
GLOBAL-2,2018-099BG,2026-07-20T08:50:09.393792,15.08844393,.00070656,97.3547,236.5022,53.0029,307.1846,0,U,43812,999,41691,.12157203E-3,.1854E-4,0
SEAHAWK-1,2018-099BQ,2026-07-20T12:16:25.098240,15.23289082,.00084296,97.3936,253.4966,179.5356,180.5891,0,U,43820,999,41760,.21346261E-3,.4996E-4,0
SAUDISAT 5A,2018-102A,2026-07-20T14:58:43.485024,15.28353010,.00099064,97.3045,262.5639,26.2034,333.9705,0,U,43831,999,42078,.1147822E-3,.3099E-4,0
SAUDISAT 5B,2018-102C,2026-07-20T15:18:01.999296,15.28594459,.00106763,97.3155,265.7074,27.5066,332.6737,0,U,43833,999,42090,.10921276E-3,.2968E-4,0
ISAT,2018-111D,2026-07-20T12:39:09.450144,15.71750126,.00084628,97.5845,139.4791,129.8179,230.3830,0,U,43879,999,41639,.70780931E-3,.92238E-3,0
UWE-4,2018-111E,2026-07-20T07:55:10.960608,15.48022350,.00069534,97.5827,131.2970,175.5229,184.6085,0,U,43880,999,41590,.39834068E-3,.20781E-3,0
D-STAR ONE (SPARROW),2018-111F,2026-07-20T07:25:45.927840,15.87077852,.00091187,97.6060,145.6065,135.7149,224.4852,0,U,43881,999,41660,.84751879E-3,.224149E-2,0
JILIN-1 09,2019-005B,2026-07-20T14:35:35.868192,15.20767272,.00018227,97.4741,296.2920,23.6131,336.5188,0,U,43943,999,41422,.12383302E-3,.2657E-4,0
JILIN-1 10,2019-005E,2026-07-20T13:42:20.022912,15.26041755,.00090642,97.4793,300.3848,152.4819,207.6901,0,U,43946,999,41440,.13783197E-3,.3477E-4,0
EGYPTSAT-A (MISRSAT-A),2019-008A,2026-07-20T13:55:05.375712,14.72340097,.00017822,98.0173,265.8919,92.2861,267.8551,0,U,44047,999,39815,.68275796E-4,.382E-5,0
EMISAT,2019-018A,2026-07-20T13:13:49.417824,14.43651495,.0019576,98.4625,260.1648,116.0769,244.2439,0,U,44078,999,38487,.9719067E-4,.287E-5,0
JILIN-1 GAOFEN 3A,2019-032C,2026-07-20T07:38:52.268928,15.33259829,.00050785,44.9738,174.4975,143.1290,216.9945,0,U,44312,999,39292,.23413131E-3,.7367E-4,0
WT 1B,2019-032G,2026-07-20T11:40:51.624768,15.27779339,.0008122,44.9724,239.0888,69.2578,290.9175,0,U,44316,999,39217,.17745097E-3,.4613E-4,0
